[{"OBJECT_NAME":"STARLINK-31666","OBJECT_ID":"2024-076J","EPOCH":"2026-03-09T04:06:12.654720","MEAN_MOTION":15.27577145,"ECCENTRICITY":0.00011205,"INCLINATION":43.0036,"RA_OF_ASC_NODE":4.9544,"ARG_OF_PERICENTER":268.9882,"MEAN_ANOMALY":91.0841,"EPHEMERIS_TYPE":0,"CLASSIFICATION_TYPE":"U","NORAD_CAT_ID":59572,"ELEMENT_SET_NO":999,"REV_AT_EPOCH":10650,"BSTAR":-5.4722042e-5,"MEAN_MOTION_DOT":-1.767e-5,"MEAN_MOTION_DDOT":0},{"OBJECT_NAME":"PHISAT 2","OBJECT_ID":"2024-149C","EPOCH":"2026-03-09T18:55:12.732384","MEAN_MOTION":15.29548632,"ECCENTRICITY":0.00011753,"INCLINATION":97.3806,"RA_OF_ASC_NODE":148.6498,"ARG_OF_PERICENTER":168.623,"MEAN_ANOMALY":191.5037,"EPHEMERIS_TYPE":0,"CLASSIFICATION_TYPE":"U","NORAD_CAT_ID":60470,"ELEMENT_SET_NO":999,"REV_AT_EPOCH":8679,"BSTAR":0.00031420974,"MEAN_MOTION_DOT":8.925e-5,"MEAN_MOTION_DDOT":0}]
